status,name,address,city,state,zip,website,email,phone
inactive,M.Elle Design,2409 Main Street Unit D,Santa Monica,CA,90405,melledesign.com,unknown@melledesign.com,310 396 9090
inactive,Buckingham Interiors + Design,1820 W Grand Avenue,Chicago,IL,60622,buckinghamid.com,julia@buckinghamid.com,312 243 9975
inactive,Anyon Interior Design,,San Francisco,CA,,anyondesign.com,info@anyondesign.com,415 829 2758
inactive,Elizabeth Newman Interior Design,,Charleston,SC,,elizabethnewmanid.com,elizabeth@elizabethnewmanid.com,843 696 7024
inactive,Herlong & Associates,2214 Middle Street,Sullivan's Island,SC,29482,herlongarchitects.com,jim@herlongarchitects.com,843 883 9190
inactive,Jones Pierce Architects,553-3 Amsterdam Avenue,Atlanta,GA,30306,jonespierce.com,cooper@jonespierce.com,404 688 1050
inactive,Jute Home Interiors,495 Miller Avenue,Mill Valley,CA,94941,jutehome.com,info@jutehome.com,415 380 8330
inactive,Cindy Ray Interiors,234 S County Road,Palm Beach,FL,33480,cindyray.com,info@cindyray.com,561 655 7272
inactive,Sarah Richardson Designs,155 George Street,Toronto,ON,M5A 2M8,sarahrichardsondesign.com,info@sarahrichardsondesign.com,416 925 3338
inactive,Patricia Fisher Design,,New York,NY,,patriciafisher.com,contact@patriciafisher.com,917 324 0586
inactive,Jeff Lewis Design,,Los Angeles,CA,,jefflewisdesign.com,info@jefflewisdesign.com,
inactive,Waterleaf Interiors,1210 Morningside Drive,Manhattan Beach,CA,90266,waterleafinteriors.com,jill@waterleafinteriors.com,310 545 3175
inactive,FGH Architects,105 Revere Drive,Northbrook,IL,60062,fgharchitects.com,info@fgharchitects.com,847 715 9395
inactive,Liz Caan,1064 Centre Street,Newton,MA,2459,lizcaan.com,liz@lizcaan.com,617 244 0424
inactive,The French Nest Co Interior Design,,Tucson,AZ,,facebook.com/thefrenchnestcointeriordesign,thefrenchnestco@hotmail.com,520 971 0941
inactive,Jessica Helgerson Interior Design,723 NW 18th Avenue,Portland,OR,97209,jhinteriordesign.com,press@jhinteriordesign.com,503 548 4984
inactive,Timothy Whealon Interiors,23 E 69th Street Number 2,New York,NY,10021,timothywhealon.com,info@timothywhealon.com,212 249 2153
inactive,Wolfe-Rizor Interiors,935 Orange Avenue Suite 100,Winter Park,FL,32789,wolferizor.com,unknown@wolferizor.com,407 647 5780
inactive,Jenn Feldman Designs,,Los Angeles,CA,,jennfeldmandesigns.com,jf@jennfeldmandesigns.com ,310 279 8332
inactive,Suzanne Kasler,425 Peachtree Hills Avenue No 21B,Atlanta,GA,30305,suzannekasler.com,hello@suzannekasler.com,404 355 1035
inactive,Sally Wheat Interiors,,Houston,TX,,sallywheatinterior.com,sallywheat@comcast.net,713 269 1554
inactive,Angie Hranowski,57 Cannon Street ,Charleston,SC,29403,angiehranowsky.com,angie@angiehranowsky.com,843 810 3286
inactive,Paul Moon Design,4616 25th Avenue NE #177,Seattle,WA,98105,paulmoondesign.com,paul@paulmoondesign.com,206 985 9420
inactive,Melanie Turner Interiors,130 W Wieuca Road Suite 209,Atlanta,GA,30342,melanieturnerinteriors.com,inquiries@melanieturnerinteriors.com,404 250 0134
inactive,Hutker Architects,217 Clinton Avenue,Falmouth,MA,2540,hutkerarchitects.com,info@hutkerarchitects.com,508 540 0048
inactive,Form Interior Design,,Los Angeles,CA,,formlosangeles.com,josh@formlosangeles.com,323 394 6339
inactive,Burnham Design,523 S Rimpau Boulevard,Los Angeles,CA,90020,burnhamdesign.com,info@burnhamdesign.com,323 857 1854
inactive,Mell Lawrence Architects,913 W Gibson Street,Austin,TX,78704,architecturalpolka.com,erin@architecturalpolka.com,512 441 4669
inactive,Capella Kincheloe Interior Design,,Phoenix,AZ,,capellakincheloe.com,info@capellakincheloe.com,480 331 6892
inactive,Couture Interiors,1080 Rustling Oaks Drive,Millersville,MD,21108,www.coutureinteriors.com,lisa@coutureinteriors.com,410 729 2659
inactive,Kevin Isbell Interiors,20 Pine Street Suite 1101,New York,NY,10005,kevinisbell.com,info@kevinisbell.com,646 678 5421
inactive,Madcap Cottage,17 Chester Court,Brooklyn,NY,11225,madcapcottage.com,john@madcapcottage.com,917 513 9143
inactive,Philip Gorrivan Design,410 E 59th St Ste 1A,New York,NY,10022,philipgorrivan.com,info@philipgorrivan.com,212 339 7679
inactive,Stacy Naquin Interiors,11670 Cedar Park Ave Ste A,Baton Rouge,LA,70809,stacynaquininteriors.com,stacynaquin@cox.net,
inactive,Traci Zeller Designs,,Charlotte,NC,,tracizeller.com,info@tracizeller.com,704 953 6096
inactive,Julie Couch Interiors,,Nashville,TN,,juliecouch.com,unknown@juliecouch.com,615 873 1832
inactive,Spinnaker Development,428 32nd Street,Newport Beach,CA,92663,spinndev.com,david@spinndev.com,949 544 5800
inactive,Jana Bek Designs,,Manhattan,NY,,janabek.com,janabekdesign@gmail.com,
inactive,Ashley P. Designs,,Scottsdale,AZ,,ashleypdesign.com,info@ashleypdesign.com,480 367 1156
inactive,Chris Jovanelly,321 W Vernon Avenue,Phoenix,AZ,85003,chrisjovanelly.com,me@chrisjovanelly.com, 602 317 4702
inactive,Design Directives,8340 E Raintree Drive Bldg D,Scottsdale,AZ,85260,susanhevskerASID.com,susan@susanherskerasid.com,480 443 4800
inactive,Interiors Remembered,942 South Ash Avenue Cottage 102,Tempe,AZ,85281,interiorsremembered.com,Info@interiorsremembered.com,480 921 4224
inactive,Est Est Inc,17770 N Pacesetter Way,Scottsdale,AZ,85255,estestinc.com,info@estestinc.com,480 563 1555
inactive,Lawrence Lake Interiors,7507 E McDonald Drive Suite B,Scottsdale,AZ,85250,lawrencelakeinteriors.com,llake@lawrencelakeinteriors.com,480 443 0900
inactive,LHL Inc,19475 N Grayhawk Drive Suite 2147,Scottsdale,AZ,85255,lissaleehickman.com,lissa@lissaleehickman.com,480 773 9211
inactive,Michael Ferguson Interiors,4147 N Goldwater Boulevard Suite 104,Scottsdale,AZ,85251,michaelfergusoninteriors.com,info@michaelfergusoninteriors.com,480 945 4433
inactive,Shabby Chic,1013 Montana Avenue,Santa Monica,CA,90403,shabbychic.com,info@shabbychicbrands.com,310 394 1975
inactive,Studio B,6961 E First Street,Scottsdale,AZ,85251,studiobscottsdale.com,beth@studiobscottsdale.com,480 994 3200
,,,,,,,,
,,,,,,,,
,,,,,,,,
,,,,,,,,