status,retailer,address,city,state,zip,website,email,phone,description
inactive,A Beautiful Mess Antiques,28875 West Agoura Road,Agoura Hills,CA,91301,abeautifulmessantiques.com,abeautifulmessantiques@yahoo.com,818 874 9092,
inactive,Charme d'Antan,29963 Mulholland Highway,Agoura Hills,CA,91301,charmedantan.net,info@charmedantan.net,818 889 0229,
inactive,Room at the Beach,3835 Cross Creek Rd,Malibu,CA,90265,roomatthebeachmalibu.com,roomatthebeach@yahoo.com,310 456 9777,
,,,,,,,,,
,,,,,,,,,
,,,,,,,,,
,,,,,,,,,
,,,,,,,,,
,,,,,,,,,
,,,,,,,,,
,,,,,,,,,
,,,,,,,,,
,,,,,,,,,
,,,,,,,,,
,,,,,,,,,
,,,,,,,,,
,,,,,,,,,
,,,,,,,,,
,,,,,,,,,
,,,,,,,,,
,,,,,,,,,
,,,,,,,,,
,,,,,,,,,
,,,,,,,,,
,,,,,,,,,
,,,,,,,,,
,,,,,,,,,
,,,,,,,,,
,,,,,,,,,
,,,,,,,,,
,,,,,,,,,
,,,,,,,,,
,,,,,,,,,
,,,,,,,,,
,,,,,,,,,
,,,,,,,,,
,,,,,,,,,
,,,,,,,,,
,,,,,,,,,
,,,,,,,,,
,,,,,,,,,
,,,,,,,,,
,,,,,,,,,
,,,,,,,,,
,,,,,,,,,
,,,,,,,,,
,,,,,,,,,
,,,,,,,,,
,,,,,,,,,
,,,,,,,,,
,,,,,,,,,
,,,,,,,,,
,,,,,,,,,
,,,,,,,,,
,,,,,,,,,
,,,,,,,,,
,,,,,,,,,
,,,,,,,,,